{
  "type": "FeatureCollection",
  "features": [
    {
      "type": "Feature",
      "properties": {
        "norad_id": 15362,
        "name": "NOVA 3",
        "group": "nnss",
        "lat": -50.70956782340437,
        "lon": 80.64505218490899,
        "alt_km": 1160.3604936089441,
        "timestamp": "2025-12-09T09:46:47.913918+00:00",
        "meta_object_name": "NOVA 3",
        "meta_object_id": "1984-110A",
        "meta_epoch": "2025-12-09T04:41:35.634912",
        "meta_mean_motion": 13.23043908,
        "meta_eccentricity": 0.0030762,
        "meta_inclination": 90.1223,
        "meta_ra_of_asc_node": 80.493,
        "meta_arg_of_pericenter": 341.9796,
        "meta_mean_anomaly": 38.6613,
        "meta_ephemeris_type": 0,
        "meta_classification_type": "U",
        "meta_norad_cat_id": 15362,
        "meta_element_set_no": 999,
        "meta_rev_at_epoch": 98652,
        "meta_bstar": 0.00019191,
        "meta_mean_motion_dot": 8.9e-07,
        "meta_mean_motion_ddot": 0,
        "tle_line1": "1 15362U 84110A   25343.19555133  .00000089  00000+0  19191-3 0  9990",
        "tle_line2": "2 15362  90.1223  80.4930 0030762 341.9796  38.6613 13.23043908986527"
      },
      "geometry": {
        "type": "Point",
        "coordinates": [
          80.64505218490899,
          -50.70956782340437
        ]
      }
    },
    {
      "type": "Feature",
      "properties": {
        "norad_id": 15935,
        "name": "OSCAR 30",
        "group": "nnss",
        "lat": -55.463020059968414,
        "lon": -80.44721389966554,
        "alt_km": 1230.6713067730898,
        "timestamp": "2025-12-09T09:46:47.913929+00:00",
        "meta_object_name": "OSCAR 30",
        "meta_object_id": "1985-066A",
        "meta_epoch": "2025-12-08T20:34:52.400352",
        "meta_mean_motion": 13.36077407,
        "meta_eccentricity": 0.01694116,
        "meta_inclination": 90.1649,
        "meta_ra_of_asc_node": 99.7836,
        "meta_arg_of_pericenter": 94.7382,
        "meta_mean_anomaly": 15.8226,
        "meta_ephemeris_type": 0,
        "meta_classification_type": "U",
        "meta_norad_cat_id": 15935,
        "meta_element_set_no": 999,
        "meta_rev_at_epoch": 96401,
        "meta_bstar": 0.0002840445,
        "meta_mean_motion_dot": 1.68e-06,
        "meta_mean_motion_ddot": 0,
        "tle_line1": "1 15935U 85066A   25342.85755093  .00000168  00000+0  28404-3 0  9991",
        "tle_line2": "2 15935  90.1649  99.7836 0169411  94.7382  15.8226 13.36077407964013"
      },
      "geometry": {
        "type": "Point",
        "coordinates": [
          -80.44721389966554,
          -55.463020059968414
        ]
      }
    },
    {
      "type": "Feature",
      "properties": {
        "norad_id": 15936,
        "name": "OSCAR 24",
        "group": "nnss",
        "lat": -49.843549558919875,
        "lon": 92.4584695952424,
        "alt_km": 1240.9127771541825,
        "timestamp": "2025-12-09T09:46:47.913940+00:00",
        "meta_object_name": "OSCAR 24",
        "meta_object_id": "1985-066B",
        "meta_epoch": "2025-12-08T20:13:44.976288",
        "meta_mean_motion": 13.35935027,
        "meta_eccentricity": 0.01704578,
        "meta_inclination": 90.1788,
        "meta_ra_of_asc_node": 92.2365,
        "meta_arg_of_pericenter": 101.2137,
        "meta_mean_anomaly": 16.1688,
        "meta_ephemeris_type": 0,
        "meta_classification_type": "U",
        "meta_norad_cat_id": 15936,
        "meta_element_set_no": 999,
        "meta_rev_at_epoch": 96591,
        "meta_bstar": 0.00026157043,
        "meta_mean_motion_dot": 1.56e-06,
        "meta_mean_motion_ddot": 0,
        "tle_line1": "1 15936U 85066B   25342.84288167  .00000156  00000+0  26157-3 0  9994",
        "tle_line2": "2 15936  90.1788  92.2365 0170457 101.2137  16.1688 13.35935027965913"
      },
      "geometry": {
        "type": "Point",
        "coordinates": [
          92.4584695952424,
          -49.843549558919875
        ]
      }
    },
    {
      "type": "Feature",
      "properties": {
        "norad_id": 17070,
        "name": "POLAR BEAR",
        "group": "nnss",
        "lat": 35.74693795575943,
        "lon": -175.8176933050703,
        "alt_km": 979.8532882075751,
        "timestamp": "2025-12-09T09:46:47.913955+00:00",
        "meta_object_name": "POLAR BEAR",
        "meta_object_id": "1986-088A",
        "meta_epoch": "2025-12-09T03:11:16.321920",
        "meta_mean_motion": 13.75249676,
        "meta_eccentricity": 0.0040751,
        "meta_inclination": 89.6177,
        "meta_ra_of_asc_node": 183.918,
        "meta_arg_of_pericenter": 129.7063,
        "meta_mean_anomaly": 347.5564,
        "meta_ephemeris_type": 0,
        "meta_classification_type": "U",
        "meta_norad_cat_id": 17070,
        "meta_element_set_no": 999,
        "meta_rev_at_epoch": 95929,
        "meta_bstar": 0.00014111,
        "meta_mean_motion_dot": 1.48e-06,
        "meta_mean_motion_ddot": 0,
        "tle_line1": "1 17070U 86088A   25343.13282780  .00000148  00000+0  14111-3 0  9996",
        "tle_line2": "2 17070  89.6177 183.9180 0040751 129.7063 347.5564 13.75249676959298"
      },
      "geometry": {
        "type": "Point",
        "coordinates": [
          -175.8176933050703,
          35.74693795575943
        ]
      }
    },
    {
      "type": "Feature",
      "properties": {
        "norad_id": 18361,
        "name": "OSCAR 27",
        "group": "nnss",
        "lat": -61.7477501729349,
        "lon": 79.84437303594262,
        "alt_km": 1065.068202895347,
        "timestamp": "2025-12-09T09:46:47.913978+00:00",
        "meta_object_name": "OSCAR 27",
        "meta_object_id": "1987-080A",
        "meta_epoch": "2025-12-08T19:48:08.783424",
        "meta_mean_motion": 13.44905625,
        "meta_eccentricity": 0.01026386,
        "meta_inclination": 90.3742,
        "meta_ra_of_asc_node": 79.1258,
        "meta_arg_of_pericenter": 235.1417,
        "meta_mean_anomaly": 124.0048,
        "meta_ephemeris_type": 0,
        "meta_classification_type": "U",
        "meta_norad_cat_id": 18361,
        "meta_element_set_no": 999,
        "meta_rev_at_epoch": 87504,
        "meta_bstar": 0.0003214454,
        "meta_mean_motion_dot": 2.02e-06,
        "meta_mean_motion_ddot": 0,
        "tle_line1": "1 18361U 87080A   25342.82510166  .00000202  00000+0  32145-3 0  9998",
        "tle_line2": "2 18361  90.3742  79.1258 0102638 235.1417 124.0048 13.44905625875043"
      },
      "geometry": {
        "type": "Point",
        "coordinates": [
          79.84437303594262,
          -61.7477501729349
        ]
      }
    },
    {
      "type": "Feature",
      "properties": {
        "norad_id": 18362,
        "name": "OSCAR 29",
        "group": "nnss",
        "lat": -44.139057597249334,
        "lon": 79.97077626373958,
        "alt_km": 1059.0460921963722,
        "timestamp": "2025-12-09T09:46:47.913997+00:00",
        "meta_object_name": "OSCAR 29",
        "meta_object_id": "1987-080B",
        "meta_epoch": "2025-12-08T20:17:27.476160",
        "meta_mean_motion": 13.44447461,
        "meta_eccentricity": 0.01037656,
        "meta_inclination": 90.3754,
        "meta_ra_of_asc_node": 79.5852,
        "meta_arg_of_pericenter": 258.4854,
        "meta_mean_anomaly": 217.7657,
        "meta_ephemeris_type": 0,
        "meta_classification_type": "U",
        "meta_norad_cat_id": 18362,
        "meta_element_set_no": 999,
        "meta_rev_at_epoch": 87457,
        "meta_bstar": 0.00028903872,
        "meta_mean_motion_dot": 1.81e-06,
        "meta_mean_motion_ddot": 0,
        "tle_line1": "1 18362U 87080B   25342.84545690  .00000181  00000+0  28904-3 0  9995",
        "tle_line2": "2 18362  90.3754  79.5852 0103765 258.4854 217.7657 13.44447461874578"
      },
      "geometry": {
        "type": "Point",
        "coordinates": [
          79.97077626373958,
          -44.139057597249334
        ]
      }
    },
    {
      "type": "Feature",
      "properties": {
        "norad_id": 19070,
        "name": "OSCAR 23",
        "group": "nnss",
        "lat": -68.02634185688088,
        "lon": 17.08675731145818,
        "alt_km": 1191.5263050628519,
        "timestamp": "2025-12-09T09:46:47.914009+00:00",
        "meta_object_name": "OSCAR 23",
        "meta_object_id": "1988-033A",
        "meta_epoch": "2025-12-08T16:39:12.267936",
        "meta_mean_motion": 13.27786374,
        "meta_eccentricity": 0.01891831,
        "meta_inclination": 90.3215,
        "meta_ra_of_asc_node": 16.2672,
        "meta_arg_of_pericenter": 191.1838,
        "meta_mean_anomaly": 289.6353,
        "meta_ephemeris_type": 0,
        "meta_classification_type": "U",
        "meta_norad_cat_id": 19070,
        "meta_element_set_no": 999,
        "meta_rev_at_epoch": 82199,
        "meta_bstar": 0.00021889934,
        "meta_mean_motion_dot": 1.17e-06,
        "meta_mean_motion_ddot": 0,
        "tle_line1": "1 19070U 88033A   25342.69389199  .00000117  00000+0  21890-3 0  9990",
        "tle_line2": "2 19070  90.3215  16.2672 0189183 191.1838 289.6353 13.27786374821997"
      },
      "geometry": {
        "type": "Point",
        "coordinates": [
          17.08675731145818,
          -68.02634185688088
        ]
      }
    }
  ]
}